COSMOS 2242             
1 22626U 93024A   26080.93834227  .00002005  00000+0  17351-3 0  9996
2 22626  82.5153 254.9971 0014908 263.8566  96.0958 14.96598199782228
SL-16 R/B               
1 22803U 93059B   26080.96977977  .00000167  00000+0  10612-3 0  9994
2 22803  70.9930 345.2321 0017819 198.7387 161.3083 14.17234732681274
ARIANE 40 R/B           
1 22830U 93061H   26080.91888850  .00000188  00000+0  84567-4 0  9997
2 22830  98.4893 149.5639 0009687 244.5969 115.4213 14.32866932695858
COSMOS 2278             
1 23087U 94023A   26080.90361359 -.00000221  00000+0 -91000-4 0  9990
2 23087  71.0537 149.5467 0008855 352.9307   7.1690 14.14377910646530
SL-16 R/B               
1 23088U 94023B   26080.94461439  .00000143  00000+0  98592-4 0  9999
2 23088  70.9998  45.1483 0005476 273.7058  86.3438 14.15010823647828
SL-16 R/B               
1 23343U 94074B   26080.70827148  .00000455  00000+0  67570-4 0  9994
2 23343  97.7092 111.0386 0006742 169.6423 309.9711 14.79421140689029
SL-16 R/B               
1 23405U 94077B   26080.92145311  .00000254  00000+0  15436-3 0  9995
2 23405  70.9846 326.7576 0002385 199.3073 160.7960 14.15567338617967
ARIANE 40+ R/B          
1 23561U 95021B   26080.93070827  .00000282  00000+0  10368-3 0  9998
2 23561  98.4475 152.2462 0007975 104.6884  68.8292 14.39780798621007
SL-16 R/B               
1 23705U 95058B   26080.64635387 -.00000037  00000+0  53283-5 0  9998
2 23705  71.0220 155.1543 0010212 103.7162 256.5098 14.15500897569545
SL-16 R/B               
1 24298U 96051B   26080.92231124  .00000103  00000+0  82202-4 0  9997
2 24298  70.7596 149.3489 0014046 128.7093 231.5285 14.12418977523374
ORBVIEW 2 (SEASTAR)     
1 24883U 97037A   26080.89451956  .00000256  00000+0  10532-3 0  9990
2 24883  98.8587 245.5309 0002709  45.9731 314.1677 14.35503155510228
SL-16 R/B               
1 25400U 98043G   26080.86984192  .00000061  00000+0  44625-4 0  9999
2 25400  98.8276  34.3210 0009575 345.5070  14.5834 14.26052392440722
